GPS BIIR-2  (PRN 13)    
1 24876C 97035A   22088.70201389 -.00000000  00000-0  00000-0 0   881
2 24876  55.4965 158.7846 0056344  52.3968  29.3544  2.00563669    12
GPS BIIR-4  (PRN 20)    
1 26360C 00025A   22088.70201389 -.00000000  00000-0  00000-0 0   884
2 26360  53.9971  82.1599 0049386 183.3484 343.1840  2.00579067    18
GPS BIIR-6  (PRN 22)    
1 26605C 00071A   22088.70201389 -.00000000  00000-0  00000-0 0   887
2 26605  55.0789 155.8116 0133733 253.5152  46.5815  2.00563790    17
GPS BIIR-8  (PRN 16)    
1 27663C 03005A   22088.70201389  .00000000  00000-0  00000-0 0   881
2 27663  55.5692 276.2246 0126421  40.4722 108.9620  2.00569108    10
GPS BIIR-9  (PRN 21)    
1 27704C 03010A   22088.70201389 -.00000000  00000-0  00000-0 0   884
2 27704  54.9952  26.5363 0246943 303.6195  65.5005  2.00576642    10
GPS BIIR-11 (PRN 19)    
1 28190C 04009A   22088.70201389  .00000000  00000-0  00000-0 0   882
2 28190  56.0484 337.1874 0088873 116.7743 190.3612  2.00561867    13
GPS BIIR-13 (PRN 02)    
1 28474C 04045A   22088.70201389 -.00000000  00000-0  00000-0 0   888
2 28474  55.3237  26.6452 0208074 277.9724 297.4903  2.00568533    13
GPS BIIRM-1 (PRN 17)    
1 28874C 05038A   22088.70201389  .00000000  00000-0  00000-0 0   884
2 28874  56.1177 334.6180 0137452 274.5288  52.0618  2.00551541    17
GPS BIIRM-2 (PRN 31)    
1 29486C 06042A   22088.70201389  .00000000  00000-0  00000-0 0   880
2 29486  54.7246 212.4445 0103527  20.8700 225.6842  2.00559254    18
GPS BIIRM-3 (PRN 12)    
1 29601C 06052A   22088.70201389  .00000000  00000-0  00000-0 0   880
2 29601  55.5735 275.1593 0085033  71.9969 215.0029  2.00574786    11
GPS BIIRM-4 (PRN 15)    
1 32260C 07047A   22088.70201389 -.00000000  00000-0  00000-0 0   881
2 32260  53.2902 143.8475 0137445  61.5821   1.3102  2.00553055    18
GPS BIIRM-5 (PRN 29)    
1 32384C 07062A   22088.70201389  .00000000  00000-0  00000-0 0   884
2 32384  56.2341 335.3689 0018007 132.5296  59.6328  2.00557374    11
GPS BIIRM-6 (PRN 07)    
1 32711C 08012A   22088.70201389  .00000000  00000-0  00000-0 0   884
2 32711  54.4830 211.3986 0159704 229.7681 250.1911  2.00562904    19
GPS BIIRM-8 (PRN 05)    
1 35752C 09043A   22088.70201389 -.00000000  00000-0  00000-0 0   888
2 35752  55.0132  88.7371 0056879  56.4852  83.1218  2.00561285    12
GPS BIIF-1  (PRN 25)    
1 36585C 10022A   22088.70201389  .00000000  00000-0  00000-0 0   881
2 36585  54.8549 270.7338 0103687  56.2269 199.0138  2.00561035    13
GPS BIIF-2  (PRN 01)    
1 37753C 11036A   22088.70201389 -.00000000  00000-0  00000-0 0   886
2 37753  56.5711  31.8097 0114734  50.2087 290.0041  2.00564958    18
GPS BIIF-3  (PRN 24)    
1 38833C 12053A   22088.70201389  .00000000  00000-0  00000-0 0   885
2 38833  53.5360 206.6171 0122353  45.8307 306.9423  2.00561179    14
GPS BIIF-4  (PRN 27)    
1 39166C 13023A   22088.70201389  .00000000  00000-0  00000-0 0   883
2 39166  55.7485 331.0215 0102929  36.7178  57.2161  2.00566276    18
GPS BIIF-5  (PRN 30)    
1 39533C 14008A   22088.70201389  .00000000  00000-0  00000-0 0   885
2 39533  53.6325 212.1147 0057270 205.6135 251.4561  2.00549547    11
GPS BIIF-6  (PRN 06)    
1 39741C 14026A   22088.70201389 -.00000000  00000-0  00000-0 0   887
2 39741  56.5345  31.3357 0028541 305.4893 307.8638  2.00561600    14
GPS BIIF-7  (PRN 09)    
1 40105C 14045A   22088.70201389 -.00000000  00000-0  00000-0 0   884
2 40105  54.6715 149.9879 0019214 110.1090  78.6386  2.00572621    10
GPS BIIF-8  (PRN 03)    
1 40294C 14068A   22088.70201389 -.00000000  00000-0  00000-0 0   888
2 40294  55.7577  91.0842 0037871  51.9569 226.7326  2.00565808    15
GPS BIIF-9  (PRN 26)    
1 40534C 15013A   22088.70201389  .00000000  00000-0  00000-0 0   885
2 40534  53.7569 267.9961 0068526  20.3551 162.3662  2.00557334    12
GPS BIIF-10 (PRN 08)    
1 40730C 15033A   22088.70201389  .00000000  00000-0  00000-0 0   885
2 40730  55.2489 329.8883 0073831   6.1305  58.3047  2.00556081    12
GPS BIIF-11 (PRN 10)    
1 41019C 15062A   22088.70201389 -.00000000  00000-0  00000-0 0   889
2 41019  55.7471  90.9254 0077114 218.2858 170.8936  2.00562845    16
GPS BIIF-12 (PRN 32)    
1 41328C 16007A   22088.70201389 -.00000000  00000-0  00000-0 0   882
2 41328  54.8914 150.6404 0059929 228.9962  91.1476  2.00574254    11
GPS BIII-1  (PRN 04)    
1 43873C 18109A   22088.70201389 -.00000000  00000-0  00000-0 0   884
2 43873  55.0715 153.0419 0018156 195.3083  21.6858  2.00567903    16
GPS BIII-2  (PRN 18)    
1 44506C 19056A   22088.70201389 -.00000000  00000-0  00000-0 0   880
2 44506  55.6430  32.2215 0021559 182.0865 298.1248  2.00571182    12
GPS BIII-3  (PRN 23)    
1 45854C 20041A   22088.70201389 -.00000000  00000-0  00000-0 0   883
2 45854  55.4644  89.4889 0020182 178.5249 239.5830  2.00559805    16
GPS BIII-4  (PRN 14)    
1 46826C 20078A   22088.70201389  .00000000  00000-0  00000-0 0   882
2 46826  54.6227 273.3280 0016155 181.9288 209.2691  2.00565691    18
GPS BIII-5  (PRN 11)    
1 48859C 21054A   22088.70201389 -.00000000  00000-0  00000-0 0   886
2 48859  55.1469  34.2608 0002874 200.6796  12.9966  2.00550413    14
